{
  "norad_id": 63683,
  "name": "STARLINK-33851",
  "history": [
    {
      "epoch": "2026-03-28T20:25:39.587232",
      "apogee_km": 484.9111766015121,
      "perigee_km": 481.0457613685958,
      "latitude_deg": 42.8303618574774,
      "longitude_deg": -89.9893475198187,
      "semi_major_axis_km": 6861.115468985054,
      "eccentricity": 0.00028169,
      "inclination_deg": 43.0021,
      "raan_deg": 282.4214,
      "arg_perigee_deg": 282.0834,
      "mean_anomaly_deg": 77.9702,
      "mean_motion_rev_day": 15.27603587
    }
  ]
}