{"fetched_at":"2026-03-29T16:36:15Z","count":15609,"tles":[{"name":"STARLINK-33851","line1":"1 63683U 25085V   26087.85115263  .00029477  00000+0  10756-2 0  9999","line2":"2 63683  43.0021 282.4214 0002816 282.0834  77.9702 15.27603587 51805","category":"Starlink"}]}